full_name,a,e,i,om,w,q,ad,per_y,data_arc,condition_code,n_obs_used,n_del_obs_used,n_dop_obs_used,H,diameter
379019 (2008 VH21),2.9760901250450553,0.04087260892715201,3.889362046224137,177.7218589492746,337.4080151978407,2.85444955723213,3.0977306928579815,5.134253649786429,7268.0,0,109,,,16.8,2.987
       (2010 PT21),2.620688287230042,0.0416036583575919,15.58589162634105,228.7412543839583,348.9579901220685,2.511658067066381,2.729718507393704,4.2425918543697,1.0,9,9,,,,3.112
 33065 (1997 VQ5),2.379771108456918,0.1642861738921803,3.577162600895627,59.23034278500453,350.8100144335867,1.9888076183093781,2.770734598604458,3.67122484501504,21656.0,0,921,,,15.7,4.3660000000000005
232890 (2004 XC23),2.976636978530963,0.2827536163935672,4.4050804317941115,108.1047734501855,283.16469928093835,2.134982108160512,3.8182918489014135,5.13566883549719,9063.0,0,410,,,15.8,3.4410000000000003
 66411 (1999 NB7),2.592172518513269,0.1352486410283634,12.06633484910461,297.78227398378505,163.0198773989437,2.24158470807328,2.9427603289532596,4.17353495578167,7691.0,0,1363,,,13.9,4.285
476915 (2008 WH63),2.5555066112075,0.1353228488229414,29.256837546793626,253.3930315137839,172.1775697418804,2.20968817639304,2.90132504602196,4.08529775632078,3885.0,0,167,,,16.1,3.147
137050 (1998 VL15),2.578786850273767,0.2643440472518991,11.85923266805957,223.39614934029842,212.4094918195718,1.8970998972724231,3.260473803275112,4.14124927400835,7755.0,0,524,,,15.6,2.991
 56553 (2000 HL79),2.236673205191797,0.049874915424764917,7.250522320536856,346.44081119531836,255.43155560868018,2.125119318250019,2.3482270921335764,3.34512233323004,9369.0,0,723,,,15.9,1.5919999999999999
 70755 (1999 VB27),2.666373272571399,0.1477325385265908,1.4423407948798401,226.39889192214142,268.5285673636401,2.272463180354973,3.0602833647878254,4.35401201643412,10880.0,0,874,,,15.2,5.285
 95756 (2003 EK34),2.341542605542097,0.1938588129913039,4.129603577897329,283.38187220715463,321.75755842593713,1.887613935463141,2.795471275621053,3.58311955255099,8150.0,0,456,,,16.3,3.542
 24334 Conard (2000 AL71),2.652173514124514,0.09416415352521784,4.126043735898197,114.1109855617008,216.9092830543932,2.402433840164977,2.901913188084051,4.319277457927471,10851.0,0,1245,,,14.4,5.287000000000001
 40852 (1999 TX105),2.8407433078332,0.2155197894212334,8.472633968350623,192.3157140068119,198.32041452249018,2.228506908329211,3.4529797073371897,4.788022588745361,11063.0,0,1175,,,14.4,8.426
237781 (2002 AB128),2.5820668883482782,0.1934185586835349,10.026605281476439,138.5327773237213,285.784847658168,2.082647232379474,3.081486544317082,4.14915285879753,6851.0,0,323,,,16.5,2.173
117824 (2005 JU27),2.642840554416769,0.1256067456702584,17.73715720889106,144.0186606486361,135.4782598512434,2.310881953051097,2.97479915578244,4.2964983161668595,7181.0,0,540,,,15.5,2.739
       (2010 MY78),2.3226984077625916,0.2561127791107299,11.60304540269521,100.475932080716,188.95806944949607,1.7278256635144469,2.9175711520107366,3.53995250819464,2.0,9,15,,,,1.2790000000000001
 30112 (2000 FZ25),2.314761349043237,0.1475166381986316,7.649851338401023,30.02584842074913,305.41934937032846,1.97329553660025,2.656227161486225,3.52182308108019,14352.0,0,1913,,,14.0,4.473
 19620 Auckland (1999 QG),2.6938900887947184,0.1446998618145429,14.065331130675249,65.70609649832973,30.18356616679957,2.3040845652025563,3.0836956123868813,4.42158533282973,13701.0,0,1623,,,13.7,4.721
206855 (2004 FS31),3.190863225792011,0.2138668290508098,27.32573800747917,124.7148783009508,130.3697134552194,2.508443425757036,3.873283025826987,5.69994264346522,7509.0,0,267,,,14.9,6.042999999999999
248840 (2006 TE),2.7057611476641887,0.1850324835846893,11.84482912137278,149.9689992026114,251.203231682179,2.205107442524925,3.2064148528034533,4.450844144904781,4781.0,0,218,,,16.5,2.987
307530 (2003 BL22),2.764058343088301,0.2615089997564359,15.356756880004392,206.7909423504577,216.3507671571526,2.041232210518848,3.486884475657754,4.59546021890713,5689.0,0,164,,,16.1,4.056
151060 (2001 VA19),2.710748740229041,0.146180881505284,8.105829328785271,232.9583500565094,173.77987164206982,2.314489099843022,3.107008380615061,4.46315633145445,6705.0,0,535,,,15.5,5.505
247286 (2001 SE206),2.988317827912807,0.1075546597084658,13.3598664592908,359.53288473647996,258.3528987470279,2.6669103208309033,3.30972533499471,5.16592838073621,6795.0,0,260,,,15.7,4.125
 58577 (1997 SV),2.3669691594591544,0.1202402843785585,7.135350112364064,32.65662454984748,344.13627176895614,2.0823641146105083,2.651574204307801,3.64164075884144,12144.0,0,1263,,,14.8,2.696
348721 (2006 DJ70),2.624780537170935,0.1209729728404939,13.543529589828221,124.77362579707079,121.26773429896359,2.307253032535499,2.9423080418063714,4.25253305316864,4813.0,0,282,,,16.1,1.7209999999999999
263620 (2008 GJ24),3.1788185006287146,0.08463251622364187,16.27838617631216,26.85105534059188,340.28552464046004,2.909787092302242,3.4478499089551877,5.66769929330155,7090.0,0,178,,,15.4,5.294
 40492 (1999 RO69),2.383882385223544,0.123841114502992,8.098690504032612,154.4868588674225,195.9625128573119,2.088659733793409,2.679105036653678,3.6807425282312596,8074.0,0,967,,,15.3,1.764
 34078 (2000 PF),2.581879721946037,0.2141749071844553,13.88268421125818,294.7168571243549,33.290201467742946,2.028905872136817,3.1348535717552566,4.14870172721963,11570.0,0,967,,,14.1,6.574
235946 (2005 EY145),3.048850596970933,0.1605550913706788,3.216279206070263,32.56111055078621,154.2584858122319,2.559342110798716,3.5383590831431495,5.32368581387434,7158.0,0,222,,,16.2,2.8680000000000003
  9744 Nielsen (1988 JW),2.6102904854452644,0.3008329272250801,13.579164443872271,108.62303102732159,134.753232486148,1.82502915780099,3.395551813089539,4.21736765415287,13057.0,0,1382,,,13.6,4.6530000000000005
 53151 (1999 BC24),2.3636693162485933,0.05052912466156335,5.253302108877085,269.1863464497568,256.7739995608223,2.2442351747091545,2.48310345778803,3.6340280776985896,10704.0,0,1352,,,14.7,2.1630000000000003
149158 (2002 FQ29),3.0377849813766717,0.08369109913357199,6.536905425619699,245.66093624287566,299.2004089020363,2.7835494173538007,3.2920205453995433,5.29472914278664,9339.0,0,369,,,15.3,6.023
365431 (2010 LO51),2.283910273447268,0.1938658224245507,22.770767598508982,164.6767812761242,130.9458813158132,1.8411381299415333,2.726682416953004,3.4516500625257405,6716.0,0,294,,,16.9,1.055
 21084 (1991 UV3),2.7251942619792633,0.1716199604904812,8.807732805002017,237.56410517742557,224.4438768698508,2.257496530409496,3.1928919935490296,4.49887991479764,10438.0,0,1443,,,14.2,4.967
399325 (1999 GY5),1.146350925570498,0.6147179416085726,24.43209067505353,203.4006765391136,232.2076353312983,0.4416684442427196,1.8510334068982768,1.2273956540618,7716.0,0,167,,,19.9,0.669
  5486 (1991 UT2),2.602746830163877,0.06335170806576775,10.19437524702182,63.719181017541416,221.556404996482,2.437858372810232,2.7676352875175207,4.1990987845111505,23885.0,0,1997,,,12.7,7.1739999999999995
123436 (2000 WF120),2.6953299206969445,0.1786433642927427,9.286934872850264,58.65272451696322,351.68982863800517,2.213827115784751,3.1768327256091387,4.42513068360845,7097.0,0,453,,,15.6,3.885
 11431 Karelbosscha (4843 T-1),3.150586877554642,0.1213884445211451,5.86551832537213,35.699124491319864,167.8932947668783,2.768142037159552,3.5330317179497315,5.59236349296767,17823.0,0,824,,,14.4,6.81
226955 (2004 VY40),3.0139700392472712,0.04242629859834287,7.609847760132352,223.2789064513889,194.0224780373855,2.886098446395707,3.141841632098835,5.232588694303019,5510.0,0,104,,,16.4,3.165
128143 (2003 QS60),3.134803669739235,0.1756393946708945,5.4862730481662,129.4958588430075,202.7852714244511,2.5842086507741366,3.6853986887043333,5.550392836871611,8845.0,0,418,,,15.1,4.922
 16316 (2089 T-1),3.2141219193309736,0.1765329765920153,0.3401475618956343,327.8954905989437,328.350770830595,2.6467234097818353,3.7815204288801114,5.7623777137087595,17843.0,0,1557,,,13.7,9.362
       (2016 EV164),3.1003422115392985,0.1700434939060101,8.889420211437818,204.48778291703968,340.8711343703677,2.573149189584869,3.627535233493726,5.45912014264801,2187.0,3,53,,,17.0,3.27
246087 (2007 AL3),3.163804304882837,0.1282607275705409,5.740866192727066,312.3727219032219,102.17079258859872,2.758012462847756,3.5695961469179203,5.62759222864821,7004.0,0,157,,,15.7,5.327999999999999
 58137 (1981 EJ44),3.122100564730872,0.07357491485034462,8.919559108977847,193.0264688285561,134.7153330511691,2.8923922815265852,3.3518088479351587,5.516689412328071,14295.0,0,715,,,14.4,5.29
 32864 (1993 FW15),3.030336332189127,0.1001772242191373,10.25490278892048,31.199247878378,268.179428750566,2.726765649980018,3.333907014398235,5.27526707037392,9954.0,0,1106,,,13.9,5.083
 19691 Iwate (1999 RN214),2.742238222088989,0.05993365723735404,5.518231708354286,162.5603470987726,247.2234118762325,2.5778858564231366,2.906590587754842,4.54115130306869,14115.0,0,2061,,,13.3,12.595999999999998
121326 (1999 SG12),3.0927461241201,0.2718478001980868,21.272344911591443,245.19129321454568,79.30416346793571,2.251989893706891,3.9335023545333083,5.439069512424671,8035.0,0,426,,,14.5,6.707000000000001
129442 (1981 EC15),2.572483479478905,0.1856217512558354,5.495798726418013,337.7297755243332,191.5308156213163,2.094974590941326,3.049992368016484,4.126074771480201,14134.0,0,491,,,15.8,2.097
392312 (2010 DB55),2.8942317965262347,0.1051262566105354,13.97270015496603,119.47754015494499,267.24146364094867,2.589972041994247,3.1984915510582237,4.9238880241839,7297.0,0,105,,,16.2,4.03
  1679 Nevanlinna (1941 FR),3.11589197136249,0.1537486296136146,17.97281342051977,177.4148333925444,89.86515851309916,2.6368278507414433,3.5949560919835357,5.50024190503563,32999.0,0,2766,,,10.6,52.68600000000001
 52479 (1995 TZ),2.231941880707363,0.19491011484679002,2.1538472871044756,36.20317750511045,252.1511005947195,1.79691383240733,2.666969929007395,3.3345138412889703,8849.0,0,1101,,,15.7,4.988
